NORAD_CAT_ID,OBJECT_NAME,OBJECT_TYPE,EPOCH,MEAN_MOTION,ECCENTRICITY,INCLINATION,RA_OF_ASC_NODE,ARG_OF_PERICENTER,MEAN_ANOMALY,BSTAR,MEAN_MOTION_DOT,MEAN_MOTION_DDOT,TLE_LINE0,TLE_LINE1,TLE_LINE2,SEMIMAJOR_AXIS,PERIOD,APOGEE,PERIGEE,DECAYED
55647.0,STARLINK-5510,PAYLOAD,2023-10-18 03:03:08,14.9833723,0.0002329,70.0019,226.8741,271.0606,89.0286,-7.7599e-05,-1.019e-05,0.0,0 STARLINK-5510,1 55647U 23021V   23291.12717733 -.00001019  00000-0 -77599-4 0  9997,2 55647  70.0019 226.8741 0002329 271.0606  89.0286 14.98337230 37940,6950.171,96.107,573.654,570.417,0.0
55647.0,STARLINK-5510,PAYLOAD,2023-10-18 12:39:56,14.98334514,0.0002131,70.0024,225.8641,280.6155,79.4764,-3.2639e-05,-4.82e-06,0.0,0 STARLINK-5510,1 55647U 23021V   23291.52773835 -.00000482  00000-0 -32639-4 0  9995,2 55647  70.0024 225.8641 0002131 280.6155  79.4764 14.98334514 37700,6950.179,96.107,573.525,570.563,0.0
55647.0,STARLINK-5510,PAYLOAD,2023-10-19 04:41:16,14.98335246,0.0002764,70.0012,224.1816,268.2833,91.8009,0.00011669,1.3e-05,0.0,0 STARLINK-5510,1 55647U 23021V   23292.19532842  .00001300  00000-0  11669-3 0  9997,2 55647  70.0012 224.1816 0002764 268.2833  91.8009 14.98335246 37804,6950.177,96.107,573.963,570.121,0.0
55647.0,STARLINK-5510,PAYLOAD,2023-10-19 06:17:23,14.98340358,0.0002856,70.001,224.0128,269.8177,90.2655,0.00020754,2.385e-05,0.0,0 STARLINK-5510,1 55647U 23021V   23292.26208228  .00002385  00000-0  20754-3 0  9992,2 55647  70.0010 224.0128 0002856 269.8177  90.2655 14.98340358 37818,6950.161,96.106,574.011,570.041,0.0
55647.0,STARLINK-5510,PAYLOAD,2023-10-19 19:06:29,14.9833067,0.0002038,70.0039,222.6638,272.1358,87.9568,6.2796e-05,6.57e-06,0.0,0 STARLINK-5510,1 55647U 23021V   23292.79617343  .00000657  00000-0  62796-4 0  9995,2 55647  70.0039 222.6638 0002038 272.1358  87.9568 14.98330670 37899,6950.191,96.107,573.472,570.639,0.0
55647.0,STARLINK-5510,PAYLOAD,2023-10-20 04:43:17,14.98332886,0.000226,70.002,221.656,251.4188,108.6725,9.0814e-05,9.91e-06,0.0,0 STARLINK-5510,1 55647U 23021V   23293.19672926  .00000991  00000-0  90814-4 0  9991,2 55647  70.0020 221.6560 0002260 251.4188 108.6725 14.98332886 38258,6950.184,96.107,573.62,570.478,0.0
55647.0,STARLINK-5510,PAYLOAD,2023-10-20 20:44:39,14.9832335,0.0002605,70.001,219.9744,263.6062,96.4801,-0.00010076,-1.295e-05,0.0,0 STARLINK-5510,1 55647U 23021V   23293.86434098 -.00001295  00000-0 -10076-3 0  9992,2 55647  70.0010 219.9744 0002605 263.6062  96.4801 14.98323350 38053,6950.213,96.107,573.889,570.268,0.0
55647.0,STARLINK-5510,PAYLOAD,2023-10-20 22:20:47,14.98323069,0.0002561,70.0013,219.8061,262.9193,97.1675,-9.7221e-05,-1.252e-05,0.0,0 STARLINK-5510,1 55647U 23021V   23293.93110274 -.00001252  00000-0 -97221-4 0  9998,2 55647  70.0013 219.8061 0002561 262.9193  97.1675 14.98323069 38363,6950.214,96.107,573.859,570.299,0.0
55647.0,STARLINK-5510,PAYLOAD,2023-10-21 03:09:11,14.98357316,0.0002426,70.0023,219.3009,245.8033,114.2873,-0.0007895,-9.507e-05,0.0,0 STARLINK-5510,1 55647U 23021V   23294.13138154 -.00009507  00000-0 -78950-3 0  9996,2 55647  70.0023 219.3009 0002426 245.8033 114.2873 14.98357316 38097,6950.108,96.105,573.66,570.287,0.0
55647.0,STARLINK-5510,PAYLOAD,2023-10-21 04:45:19,14.98318929,0.000224,70.0018,219.132,267.15,92.9403,1.9585e-05,1.41e-06,0.0,0 STARLINK-5510,1 55647U 23021V   23294.19814318  .00000141  00000-0  19585-4 0  9998,2 55647  70.0018 219.1320 0002240 267.1500  92.9403 14.98318929 38105,6950.227,96.108,573.649,570.535,0.0
55647.0,STARLINK-5510,PAYLOAD,2023-10-21 12:45:58,14.98336894,0.0002593,70.0022,218.2906,269.7989,90.2873,-2.3808e-05,-3.77e-06,0.0,0 STARLINK-5510,1 55647U 23021V   23294.53193209 -.00000377  00000-0 -23808-4 0  9991,2 55647  70.0022 218.2906 0002593 269.7989  90.2873 14.98336894 38451,6950.172,96.107,573.839,570.234,0.0
55647.0,STARLINK-5510,PAYLOAD,2023-10-21 20:46:38,14.98332494,0.0002611,70.0025,217.4491,264.0966,95.9895,0.00030833,3.588e-05,0.0,0 STARLINK-5510,1 55647U 23021V   23294.86572453  .00003588  00000-0  30833-3 0  9999,2 55647  70.0025 217.4491 0002611 264.0966  95.9895 14.98332494 38209,6950.185,96.107,573.865,570.235,0.0
55647.0,STARLINK-5510,PAYLOAD,2023-10-21 22:22:46,14.9833601,0.0002477,70.0017,217.2807,259.0909,100.9971,0.00024647,2.849e-05,0.0,0 STARLINK-5510,1 55647U 23021V   23294.93248391  .00002849  00000-0  24647-3 0  9993,2 55647  70.0017 217.2807 0002477 259.0909 100.9971 14.98336010 38514,6950.174,96.107,573.761,570.318,0.0
55647.0,STARLINK-5510,PAYLOAD,2023-10-22 04:47:17,14.98352872,0.0002973,70.0019,216.6075,249.4065,110.6775,0.00043779,5.138e-05,0.0,0 STARLINK-5510,1 55647U 23021V   23295.19950569  .00005138  00000-0  43779-3 0  9990,2 55647  70.0019 216.6075 0002973 249.4065 110.6775 14.98352872 38258,6950.122,96.106,574.053,569.921,0.0
55647.0,STARLINK-5510,PAYLOAD,2023-10-22 12:47:59,14.98334675,0.000214,70.0024,215.7658,273.5943,86.4972,3.103e-05,2.77e-06,0.0,0 STARLINK-5510,1 55647U 23021V   23295.53332762  .00000277  00000-0  31030-4 0  9994,2 55647  70.0024 215.7658 0002140 273.5943  86.4972 14.98334675 38609,6950.178,96.107,573.531,570.556,0.0
55647.0,STARLINK-5510,PAYLOAD,2023-10-22 20:48:41,14.98308377,0.000259,70.0016,214.9243,264.2446,95.8418,-2.6537e-05,-4.09e-06,0.0,0 STARLINK-5510,1 55647U 23021V   23295.86714594 -.00000409  00000-0 -26537-4 0  9992,2 55647  70.0016 214.9243 0002590 264.2446  95.8418 14.98308377 38356,6950.26,96.108,573.925,570.325,0.0
55647.0,STARLINK-5510,PAYLOAD,2023-10-22 22:24:49,14.98308068,0.0002632,70.0014,214.7561,264.9251,95.1608,-3.3273e-05,-4.9e-06,0.0,0 STARLINK-5510,1 55647U 23021V   23295.93390704 -.00000490  00000-0 -33273-4 0  9998,2 55647  70.0014 214.7561 0002632 264.9251  95.1608 14.98308068 38668,6950.261,96.108,573.955,570.296,0.0
55647.0,STARLINK-5510,PAYLOAD,2023-10-23 04:49:21,14.98315257,0.0002789,70.0011,214.0831,268.3843,91.6997,-4.1102e-06,-1.42e-06,0.0,0 STARLINK-5510,1 55647U 23021V   23296.20094440 -.00000142  00000-0 -41102-5 0  9992,2 55647  70.0011 214.0831 0002789 268.3843  91.6997 14.98315257 38408,6950.238,96.108,574.042,570.165,0.0
55647.0,STARLINK-5510,PAYLOAD,2023-10-23 20:50:41,14.98333841,0.0002756,70.0009,212.399,267.7739,92.3104,-8.1944e-05,-1.071e-05,0.0,0 STARLINK-5510,1 55647U 23021V   23296.86853563 -.00001071  00000-0 -81944-4 0  9992,2 55647  70.0009 212.3990 0002756 267.7739  92.3104 14.98333841 38501,6950.181,96.107,573.961,570.131,0.0
55647.0,STARLINK-5510,PAYLOAD,2023-10-23 22:26:48,14.98342703,0.0002848,70.0003,212.2312,266.3412,93.7421,8.897e-05,9.69e-06,0.0,0 STARLINK-5510,1 55647U 23021V   23296.93528515  .00000969  00000-0  88970-4 0  9995,2 55647  70.0003 212.2312 0002848 266.3412  93.7421 14.98342703 38815,6950.154,96.106,573.998,570.039,0.0
55647.0,STARLINK-5510,PAYLOAD,2023-10-24 04:51:21,14.98342476,0.0002748,70.0006,211.5587,267.6941,92.3904,-3.3966e-05,-4.98e-06,0.0,0 STARLINK-5510,1 55647U 23021V   23297.20232758 -.00000498  00000-0 -33966-4 0  9991,2 55647  70.0006 211.5587 0002748 267.6941  92.3904 14.98342476 38553,6950.154,96.106,573.929,570.109,0.0
55647.0,STARLINK-5510,PAYLOAD,2023-10-25 03:17:14,14.98328653,0.000277,70.0013,209.2028,278.0871,81.9974,0.0002268,2.614e-05,0.0,0 STARLINK-5510,1 55647U 23021V   23298.13696894  .00002614  00000-0  22680-3 0  9999,2 55647  70.0013 209.2028 0002770 278.0871  81.9974 14.98328653 38695,6950.197,96.107,573.987,570.137,0.0
55647.0,STARLINK-5510,PAYLOAD,2023-10-25 22:30:51,14.983317,0.0002185,70.0017,207.1825,254.1507,105.9411,-9.3161e-06,-2.04e-06,0.0,0 STARLINK-5510,1 55647U 23021V   23298.93809245 -.00000204  00000-0 -93161-5 0  9992,2 55647  70.0017 207.1825 0002185 254.1507 105.9411 14.98331700 39110,6950.188,96.107,573.571,570.534,0.0
55647.0,STARLINK-5510,PAYLOAD,2023-10-26 03:19:15,14.98331321,0.0002243,70.0015,206.6778,261.6816,98.4088,-1.7126e-05,-2.97e-06,0.0,0 STARLINK-5510,1 55647U 23021V   23299.13837323 -.00000297  00000-0 -17126-4 0  9991,2 55647  70.0015 206.6778 0002243 261.6816  98.4088 14.98331321 38844,6950.189,96.107,573.613,570.495,0.0
55647.0,STARLINK-5510,PAYLOAD,2023-10-26 04:55:23,14.98315293,0.0002407,70.0015,206.5095,264.0587,96.0298,0.0002566,2.969e-05,0.0,0 STARLINK-5510,1 55647U 23021V   23299.20513746  .00002969  00000-0  25660-3 0  9996,2 55647  70.0015 206.5095 0002407 264.0587  96.0298 14.98315293 38857,6950.238,96.108,573.776,570.43,0.0
55647.0,STARLINK-5510,PAYLOAD,2023-10-26 20:56:43,14.98335087,0.0002504,70.0009,204.8262,268.0015,92.0858,-4.2413e-06,-1.44e-06,0.0,0 STARLINK-5510,1 55647U 23021V   23299.87272801 -.00000144  00000-0 -42413-5 0  9995,2 55647  70.0009 204.8262 0002504 268.0015  92.0858 14.98335087 39251,6950.177,96.107,573.782,570.302,0.0
55647.0,STARLINK-5510,PAYLOAD,2023-10-27 03:21:14,14.98348124,0.0002613,70.0003,204.1533,267.437,92.649,5.8499e-05,6.05e-06,0.0,0 STARLINK-5510,1 55647U 23021V   23300.13975631  .00000605  00000-0  58499-4 0  9998,2 55647  70.0003 204.1533 0002613 267.4370  92.6490 14.98348124 38991,6950.137,96.106,573.818,570.186,0.0
55647.0,STARLINK-5510,PAYLOAD,2023-10-27 11:21:56,14.9833122,0.0002652,70.0019,203.3122,261.2554,98.8305,1.2657e-07,-9.1e-07,0.0,0 STARLINK-5510,1 55647U 23021V   23300.47356622 -.00000091  00000-0  12657-6 0  9996,2 55647  70.0019 203.3122 0002652 261.2554  98.8305 14.98331220 39041,6950.189,96.107,573.897,570.211,0.0
55647.0,STARLINK-5510,PAYLOAD,2023-10-27 20:58:45,14.98325653,0.0002545,70.0009,202.3017,269.165,90.9217,-2.118e-05,-3.46e-06,0.0,0 STARLINK-5510,1 55647U 23021V   23300.87413254 -.00000346  00000-0 -21180-4 0  9998,2 55647  70.0009 202.3017 0002545 269.1650  90.9217 14.98325653 39102,6950.206,96.107,573.84,570.303,0.0
55647.0,STARLINK-5510,PAYLOAD,2023-10-27 22:34:53,14.98325144,0.0002541,70.0007,202.1331,268.4552,91.6316,-2.6151e-05,-4.05e-06,0.0,0 STARLINK-5510,1 55647U 23021V   23300.94089316 -.00000405  00000-0 -26151-4 0  9993,2 55647  70.0007 202.1331 0002541 268.4552  91.6316 14.98325144 39413,6950.208,96.107,573.839,570.307,0.0
